TDRS 11                 
1 39070U 13004A   26087.54697647  .00000062  00000+0  00000+0 0  9994
2 39070   3.4028  29.8090 0004439 353.5511 185.0771  1.00270916 45889
TDRS 12                 
1 39504U 14004A   26087.32266647 -.00000287  00000+0  00000+0 0  9995
2 39504   3.8997  17.6880 0003522 257.3402 345.6755  1.00279446 43469
GPM-CORE                
1 39574U 14009C   26087.61273924  .00017162  00000+0  36421-3 0  9994
2 39574  64.9726 218.0837 0012427 272.3785  87.5933 15.45096591685361
MMS 1                   
1 40482U 15011A   26087.58335648 -.00001699  00000+0  00000+0 0  9995
2 40482  71.0506 349.8730 8395566 165.8106 356.5037  0.28106805  1305
MMS 2                   
1 40483U 15011B   26087.58335648 -.00001699  00000+0  00000+0 0  9996
2 40483  71.0510 349.8750 8396067 165.8170 356.4874  0.28112044  1301
MMS 3                   
1 40484U 15011C   26087.58335648 -.00001698  00000+0  00000+0 0  9996
2 40484  71.0536 349.8796 8395308 165.8112 356.4931  0.28112632  1300
MMS 4                   
1 40485U 15011D   26087.58335648 -.00001699  00000+0  00000+0 0  9998
2 40485  71.0510 349.8751 8395132 165.8183 356.4807  0.28105772  1306
TDRS 13                 
1 42915U 17047A   26087.32855984 -.00000117  00000+0  00000+0 0  9995
2 42915   3.4346   0.6841 0011287  97.6596 194.2014  1.00271658 31536
NOAA 20 (JPSS-1)        
1 43013U 17073A   26087.57742187  .00000082  00000+0  59633-4 0  9992
2 43013  98.7713  27.7792 0001882 112.1482 247.9894 14.19540865433039
