[{"OBJECT_NAME":"TDRS 11","OBJECT_ID":"2013-004A","EPOCH":"2026-03-28T13:07:38.767008","MEAN_MOTION":1.00270916,"ECCENTRICITY":0.00044396,"INCLINATION":3.4028,"RA_OF_ASC_NODE":29.809,"ARG_OF_PERICENTER":353.5511,"MEAN_ANOMALY":185.0771,"EPHEMERIS_TYPE":0,"CLASSIFICATION_TYPE":"U","NORAD_CAT_ID":39070,"ELEMENT_SET_NO":999,"REV_AT_EPOCH":4588,"BSTAR":0,"MEAN_MOTION_DOT":6.2e-7,"MEAN_MOTION_DDOT":0},{"OBJECT_NAME":"TDRS 12","OBJECT_ID":"2014-004A","EPOCH":"2026-03-28T07:44:38.383008","MEAN_MOTION":1.00279446,"ECCENTRICITY":0.00035227,"INCLINATION":3.8997,"RA_OF_ASC_NODE":17.688,"ARG_OF_PERICENTER":257.3402,"MEAN_ANOMALY":345.6755,"EPHEMERIS_TYPE":0,"CLASSIFICATION_TYPE":"U","NORAD_CAT_ID":39504,"ELEMENT_SET_NO":999,"REV_AT_EPOCH":4346,"BSTAR":0,"MEAN_MOTION_DOT":-2.87e-6,"MEAN_MOTION_DDOT":0},{"OBJECT_NAME":"GPM-CORE","OBJECT_ID":"2014-009C","EPOCH":"2026-03-28T14:42:20.670336","MEAN_MOTION":15.45096591,"ECCENTRICITY":0.00124277,"INCLINATION":64.9726,"RA_OF_ASC_NODE":218.0837,"ARG_OF_PERICENTER":272.3785,"MEAN_ANOMALY":87.5933,"EPHEMERIS_TYPE":0,"CLASSIFICATION_TYPE":"U","NORAD_CAT_ID":39574,"ELEMENT_SET_NO":999,"REV_AT_EPOCH":68536,"BSTAR":0.00036421482,"MEAN_MOTION_DOT":0.00017162,"MEAN_MOTION_DDOT":0},{"OBJECT_NAME":"MMS 1","OBJECT_ID":"2015-011A","EPOCH":"2026-03-28T14:00:01.999872","MEAN_MOTION":0.28106805,"ECCENTRICITY":0.83955664,"INCLINATION":71.0506,"RA_OF_ASC_NODE":349.873,"ARG_OF_PERICENTER":165.8106,"MEAN_ANOMALY":356.5037,"EPHEMERIS_TYPE":0,"CLASSIFICATION_TYPE":"U","NORAD_CAT_ID":40482,"ELEMENT_SET_NO":999,"REV_AT_EPOCH":130,"BSTAR":0,"MEAN_MOTION_DOT":-1.699e-5,"MEAN_MOTION_DDOT":0},{"OBJECT_NAME":"MMS 2","OBJECT_ID":"2015-011B","EPOCH":"2026-03-28T14:00:01.999872","MEAN_MOTION":0.28112044,"ECCENTRICITY":0.83960679,"INCLINATION":71.051,"RA_OF_ASC_NODE":349.875,"ARG_OF_PERICENTER":165.817,"MEAN_ANOMALY":356.4874,"EPHEMERIS_TYPE":0,"CLASSIFICATION_TYPE":"U","NORAD_CAT_ID":40483,"ELEMENT_SET_NO":999,"REV_AT_EPOCH":130,"BSTAR":0,"MEAN_MOTION_DOT":-1.699e-5,"MEAN_MOTION_DDOT":0},{"OBJECT_NAME":"MMS 3","OBJECT_ID":"2015-011C","EPOCH":"2026-03-28T14:00:01.999872","MEAN_MOTION":0.28112632,"ECCENTRICITY":0.83953086,"INCLINATION":71.0536,"RA_OF_ASC_NODE":349.8796,"ARG_OF_PERICENTER":165.8112,"MEAN_ANOMALY":356.4931,"EPHEMERIS_TYPE":0,"CLASSIFICATION_TYPE":"U","NORAD_CAT_ID":40484,"ELEMENT_SET_NO":999,"REV_AT_EPOCH":130,"BSTAR":0,"MEAN_MOTION_DOT":-1.698e-5,"MEAN_MOTION_DDOT":0},{"OBJECT_NAME":"MMS 4","OBJECT_ID":"2015-011D","EPOCH":"2026-03-28T14:00:01.999872","MEAN_MOTION":0.28105772,"ECCENTRICITY":0.83951328,"INCLINATION":71.051,"RA_OF_ASC_NODE":349.8751,"ARG_OF_PERICENTER":165.8183,"MEAN_ANOMALY":356.4807,"EPHEMERIS_TYPE":0,"CLASSIFICATION_TYPE":"U","NORAD_CAT_ID":40485,"ELEMENT_SET_NO":999,"REV_AT_EPOCH":130,"BSTAR":0,"MEAN_MOTION_DOT":-1.699e-5,"MEAN_MOTION_DDOT":0},{"OBJECT_NAME":"TDRS 13","OBJECT_ID":"2017-047A","EPOCH":"2026-03-28T07:53:07.570176","MEAN_MOTION":1.00271658,"ECCENTRICITY":0.0011287,"INCLINATION":3.4346,"RA_OF_ASC_NODE":0.6841,"ARG_OF_PERICENTER":97.6596,"MEAN_ANOMALY":194.2014,"EPHEMERIS_TYPE":0,"CLASSIFICATION_TYPE":"U","NORAD_CAT_ID":42915,"ELEMENT_SET_NO":999,"REV_AT_EPOCH":3153,"BSTAR":0,"MEAN_MOTION_DOT":-1.17e-6,"MEAN_MOTION_DDOT":0},{"OBJECT_NAME":"NOAA 20 (JPSS-1)","OBJECT_ID":"2017-073A","EPOCH":"2026-03-28T13:51:29.249568","MEAN_MOTION":14.19540865,"ECCENTRICITY":0.00018829,"INCLINATION":98.7713,"RA_OF_ASC_NODE":27.7792,"ARG_OF_PERICENTER":112.1482,"MEAN_ANOMALY":247.9894,"EPHEMERIS_TYPE":0,"CLASSIFICATION_TYPE":"U","NORAD_CAT_ID":43013,"ELEMENT_SET_NO":999,"REV_AT_EPOCH":43303,"BSTAR":5.9633341e-5,"MEAN_MOTION_DOT":8.2e-7,"MEAN_MOTION_DDOT":0}]
